TRANSPORTER-15 OBJECT V 
1 66685U 25276V   26068.71425446  .00015740  00000+0  72832-3 0  9999
2 66685  97.4286 144.0632 0004449  13.5049 346.6304 15.20210490 15323
PIAST-M                 
1 66758U 25276CW  26068.71168154  .00006332  00000+0  30409-3 0  9991
2 66758  97.4255 144.0316 0000747  58.1322 301.9986 15.19194203 15326
